0 FENGYUN 1C DEB
1 31172U 99025BJA 13280.80898412  .00000260  00000-0  10763-3 0  5515
2 31172 098.7372 286.7948 0154918 026.8060 095.8290 14.28620637341219
0 FENGYUN 1C DEB
1 31172U 99025BJA 13282.83969970  .00000274  00000-0  11252-3 0  5528
2 31172 098.7370 288.8294 0154798 020.8813 099.8675 14.28623104341505
0 FENGYUN 1C DEB
1 31172U 99025BJA 13287.23930704  .00000349  00000-0  13884-3 0  5548
2 31172 098.7364 293.2372 0154549 008.0295 047.2577 14.28626455342131
0 FENGYUN 1C DEB
1 31172U 99025BJA 13289.34026891  .00000337  00000-0  13480-3 0  5555
2 31172 098.7364 295.3419 0154427 001.8840 052.6346 14.28629307342434
0 FENGYUN 1C DEB
1 31172U 99025BJA 13291.87374139  .00000390  00000-0  15354-3 0  5569
2 31172 098.7366 297.8796 0154287 354.4672 122.4733 14.28631267342798
0 FENGYUN 1C DEB
1 31172U 99025BJA 13294.17515488  .00000402  00000-0  15768-3 0  5573
2 31172 098.7369 300.1849 0154165 347.7258 078.8352 14.28633753343129
